STARLINK-34733          
1 66487U 25263C   25340.58335648 -.02116906  00000+0 -30891-1 0  9993
2 66487  42.9996 161.2210 0001618 271.7130 145.5189 15.58015691  4640
STARLINK-35515          
1 66488U 25263D   25340.58335648 -.02110928  00000+0 -30797-1 0  9997
2 66488  42.9996 161.2159 0001594 270.1885 148.9601 15.58012455  4647
STARLINK-35696          
1 66489U 25263E   25340.58335648 -.02103827  00000+0 -30685-1 0  9994
2 66489  42.9996 161.2108 0001632 272.7068 148.3598 15.58007949  4647
STARLINK-35693          
1 66490U 25263F   25340.58335648 -.02107201  00000+0 -30740-1 0  9998
2 66490  42.9996 161.2060 0001564 267.9953 154.9898 15.58008859  4646
STARLINK-35663          
1 66491U 25263G   25340.58335648 -.02112901  00000+0 -30829-1 0  9990
2 66491  43.0000 161.1963 0001587 271.1983 155.6190 15.58013241  4645
STARLINK-35673          
1 66492U 25263H   25340.58335648 -.02106554  00000+0 -30730-1 0  9999
2 66492  42.9998 161.1914 0001570 272.0472 156.6893 15.58008467  4646
STARLINK-35597          
1 66493U 25263J   25340.58335648 -.02110059  00000+0 -30785-1 0  9995
2 66493  42.9999 161.1860 0001511 271.0940 159.5589 15.58011492  4648
STARLINK-35689          
1 66494U 25263K   25340.58335648 -.02111489  00000+0 -30808-1 0  9990
2 66494  42.9996 161.2012 0001554 269.6342 155.2692 15.58011100  4646
STARLINK-35832          
1 66495U 25263L   25340.58335648 -.02109252  00000+0 -30773-1 0  9997
2 66495  42.9994 161.1816 0001530 271.9398 160.6312 15.58009893  4642
STARLINK-35909          
1 66496U 25263M   25340.58335648 -.02112045  00000+0 -30818-1 0  9992
2 66496  42.9996 161.1764 0001449 272.2546 162.2344 15.58011610  4648
STARLINK-35899          
1 66497U 25263N   25340.58335648 -.02110323  00000+0 -30788-1 0  9996
2 66497  42.9995 161.1715 0001608 271.8097 164.5926 15.58011635  4645
STARLINK-35907          
1 66498U 25263P   25340.58335648 -.02113180  00000+0 -30837-1 0  9996
2 66498  42.9995 161.1660 0001386 273.0150 165.3089 15.58011940  4640
