CCSDS_OMM_VERS = 2.0
CREATION_DATE  = 
ORIGINATOR     = 

OBJECT_NAME    = STARLINK-34733
OBJECT_ID      = 2025-263C
CENTER_NAME    = EARTH
REF_FRAME      = TEME
TIME_SYSTEM    = UTC
MEAN_ELEMENT_THEORY = SGP/SGP4

EPOCH          = 2025-12-06T14:00:01.999872
MEAN_MOTION    = 15.58015691
ECCENTRICITY   = .00016185
INCLINATION    = 42.9996
RA_OF_ASC_NODE = 161.2210
ARG_OF_PERICENTER = 271.7130
MEAN_ANOMALY   = 145.5189

EPHEMERIS_TYPE = 0
CLASSIFICATION_TYPE = U
NORAD_CAT_ID   = 66487
ELEMENT_SET_NO = 999
REV_AT_EPOCH   = 464
BSTAR          = -.30890989E-1
MEAN_MOTION_DOT = -.2116906E-1
MEAN_MOTION_DDOT = 0

CCSDS_OMM_VERS = 2.0
CREATION_DATE  = 
ORIGINATOR     = 

OBJECT_NAME    = STARLINK-35515
OBJECT_ID      = 2025-263D
CENTER_NAME    = EARTH
REF_FRAME      = TEME
TIME_SYSTEM    = UTC
MEAN_ELEMENT_THEORY = SGP/SGP4

EPOCH          = 2025-12-06T14:00:01.999872
MEAN_MOTION    = 15.58012455
ECCENTRICITY   = .00015946
INCLINATION    = 42.9996
RA_OF_ASC_NODE = 161.2159
ARG_OF_PERICENTER = 270.1885
MEAN_ANOMALY   = 148.9601

EPHEMERIS_TYPE = 0
CLASSIFICATION_TYPE = U
NORAD_CAT_ID   = 66488
ELEMENT_SET_NO = 999
REV_AT_EPOCH   = 464
BSTAR          = -.30797028E-1
MEAN_MOTION_DOT = -.2110928E-1
MEAN_MOTION_DDOT = 0

CCSDS_OMM_VERS = 2.0
CREATION_DATE  = 
ORIGINATOR     = 

OBJECT_NAME    = STARLINK-35696
OBJECT_ID      = 2025-263E
CENTER_NAME    = EARTH
REF_FRAME      = TEME
TIME_SYSTEM    = UTC
MEAN_ELEMENT_THEORY = SGP/SGP4

EPOCH          = 2025-12-06T14:00:01.999872
MEAN_MOTION    = 15.58007949
ECCENTRICITY   = .00016328
INCLINATION    = 42.9996
RA_OF_ASC_NODE = 161.2108
ARG_OF_PERICENTER = 272.7068
MEAN_ANOMALY   = 148.3598

EPHEMERIS_TYPE = 0
CLASSIFICATION_TYPE = U
NORAD_CAT_ID   = 66489
ELEMENT_SET_NO = 999
REV_AT_EPOCH   = 464
BSTAR          = -.30685496E-1
MEAN_MOTION_DOT = -.2103827E-1
MEAN_MOTION_DDOT = 0

CCSDS_OMM_VERS = 2.0
CREATION_DATE  = 
ORIGINATOR     = 

OBJECT_NAME    = STARLINK-35693
OBJECT_ID      = 2025-263F
CENTER_NAME    = EARTH
REF_FRAME      = TEME
TIME_SYSTEM    = UTC
MEAN_ELEMENT_THEORY = SGP/SGP4

EPOCH          = 2025-12-06T14:00:01.999872
MEAN_MOTION    = 15.58008859
ECCENTRICITY   = .0001564
INCLINATION    = 42.9996
RA_OF_ASC_NODE = 161.2060
ARG_OF_PERICENTER = 267.9953
MEAN_ANOMALY   = 154.9898

EPHEMERIS_TYPE = 0
CLASSIFICATION_TYPE = U
NORAD_CAT_ID   = 66490
ELEMENT_SET_NO = 999
REV_AT_EPOCH   = 464
BSTAR          = -.30740492E-1
MEAN_MOTION_DOT = -.2107201E-1
MEAN_MOTION_DDOT = 0

CCSDS_OMM_VERS = 2.0
CREATION_DATE  = 
ORIGINATOR     = 

OBJECT_NAME    = STARLINK-35663
OBJECT_ID      = 2025-263G
CENTER_NAME    = EARTH
REF_FRAME      = TEME
TIME_SYSTEM    = UTC
MEAN_ELEMENT_THEORY = SGP/SGP4

EPOCH          = 2025-12-06T14:00:01.999872
MEAN_MOTION    = 15.58013241
ECCENTRICITY   = .00015875
INCLINATION    = 43.0000
RA_OF_ASC_NODE = 161.1963
ARG_OF_PERICENTER = 271.1983
MEAN_ANOMALY   = 155.6190

EPHEMERIS_TYPE = 0
CLASSIFICATION_TYPE = U
NORAD_CAT_ID   = 66491
ELEMENT_SET_NO = 999
REV_AT_EPOCH   = 464
BSTAR          = -.30828547E-1
MEAN_MOTION_DOT = -.2112901E-1
MEAN_MOTION_DDOT = 0

CCSDS_OMM_VERS = 2.0
CREATION_DATE  = 
ORIGINATOR     = 

OBJECT_NAME    = STARLINK-35673
OBJECT_ID      = 2025-263H
CENTER_NAME    = EARTH
REF_FRAME      = TEME
TIME_SYSTEM    = UTC
MEAN_ELEMENT_THEORY = SGP/SGP4

EPOCH          = 2025-12-06T14:00:01.999872
MEAN_MOTION    = 15.58008467
ECCENTRICITY   = .00015706
INCLINATION    = 42.9998
RA_OF_ASC_NODE = 161.1914
ARG_OF_PERICENTER = 272.0472
MEAN_ANOMALY   = 156.6893

EPHEMERIS_TYPE = 0
CLASSIFICATION_TYPE = U
NORAD_CAT_ID   = 66492
ELEMENT_SET_NO = 999
REV_AT_EPOCH   = 464
BSTAR          = -.30730278E-1
MEAN_MOTION_DOT = -.2106554E-1
MEAN_MOTION_DDOT = 0

CCSDS_OMM_VERS = 2.0
CREATION_DATE  = 
ORIGINATOR     = 

OBJECT_NAME    = STARLINK-35597
OBJECT_ID      = 2025-263J
CENTER_NAME    = EARTH
REF_FRAME      = TEME
TIME_SYSTEM    = UTC
MEAN_ELEMENT_THEORY = SGP/SGP4

EPOCH          = 2025-12-06T14:00:01.999872
MEAN_MOTION    = 15.58011492
ECCENTRICITY   = .00015113
INCLINATION    = 42.9999
RA_OF_ASC_NODE = 161.1860
ARG_OF_PERICENTER = 271.0940
MEAN_ANOMALY   = 159.5589

EPHEMERIS_TYPE = 0
CLASSIFICATION_TYPE = U
NORAD_CAT_ID   = 66493
ELEMENT_SET_NO = 999
REV_AT_EPOCH   = 464
BSTAR          = -.3078488E-1
MEAN_MOTION_DOT = -.2110059E-1
MEAN_MOTION_DDOT = 0

CCSDS_OMM_VERS = 2.0
CREATION_DATE  = 
ORIGINATOR     = 

OBJECT_NAME    = STARLINK-35689
OBJECT_ID      = 2025-263K
CENTER_NAME    = EARTH
REF_FRAME      = TEME
TIME_SYSTEM    = UTC
MEAN_ELEMENT_THEORY = SGP/SGP4

EPOCH          = 2025-12-06T14:00:01.999872
MEAN_MOTION    = 15.58011100
ECCENTRICITY   = .00015548
INCLINATION    = 42.9996
RA_OF_ASC_NODE = 161.2012
ARG_OF_PERICENTER = 269.6342
MEAN_ANOMALY   = 155.2692

EPHEMERIS_TYPE = 0
CLASSIFICATION_TYPE = U
NORAD_CAT_ID   = 66494
ELEMENT_SET_NO = 999
REV_AT_EPOCH   = 464
BSTAR          = -.30808273E-1
MEAN_MOTION_DOT = -.2111489E-1
MEAN_MOTION_DDOT = 0

CCSDS_OMM_VERS = 2.0
CREATION_DATE  = 
ORIGINATOR     = 

OBJECT_NAME    = STARLINK-35832
OBJECT_ID      = 2025-263L
CENTER_NAME    = EARTH
REF_FRAME      = TEME
TIME_SYSTEM    = UTC
MEAN_ELEMENT_THEORY = SGP/SGP4

EPOCH          = 2025-12-06T14:00:01.999872
MEAN_MOTION    = 15.58009893
ECCENTRICITY   = .00015302
INCLINATION    = 42.9994
RA_OF_ASC_NODE = 161.1816
ARG_OF_PERICENTER = 271.9398
MEAN_ANOMALY   = 160.6312

EPHEMERIS_TYPE = 0
CLASSIFICATION_TYPE = U
NORAD_CAT_ID   = 66495
ELEMENT_SET_NO = 999
REV_AT_EPOCH   = 464
BSTAR          = -.3077329E-1
MEAN_MOTION_DOT = -.2109252E-1
MEAN_MOTION_DDOT = 0

CCSDS_OMM_VERS = 2.0
CREATION_DATE  = 
ORIGINATOR     = 

OBJECT_NAME    = STARLINK-35909
OBJECT_ID      = 2025-263M
CENTER_NAME    = EARTH
REF_FRAME      = TEME
TIME_SYSTEM    = UTC
MEAN_ELEMENT_THEORY = SGP/SGP4

EPOCH          = 2025-12-06T14:00:01.999872
MEAN_MOTION    = 15.58011610
ECCENTRICITY   = .0001449
INCLINATION    = 42.9996
RA_OF_ASC_NODE = 161.1764
ARG_OF_PERICENTER = 272.2546
MEAN_ANOMALY   = 162.2344

EPHEMERIS_TYPE = 0
CLASSIFICATION_TYPE = U
NORAD_CAT_ID   = 66496
ELEMENT_SET_NO = 999
REV_AT_EPOCH   = 464
BSTAR          = -.30818003E-1
MEAN_MOTION_DOT = -.2112045E-1
MEAN_MOTION_DDOT = 0

CCSDS_OMM_VERS = 2.0
CREATION_DATE  = 
ORIGINATOR     = 

OBJECT_NAME    = STARLINK-35899
OBJECT_ID      = 2025-263N
CENTER_NAME    = EARTH
REF_FRAME      = TEME
TIME_SYSTEM    = UTC
MEAN_ELEMENT_THEORY = SGP/SGP4

EPOCH          = 2025-12-06T14:00:01.999872
MEAN_MOTION    = 15.58011635
ECCENTRICITY   = .00016083
INCLINATION    = 42.9995
RA_OF_ASC_NODE = 161.1715
ARG_OF_PERICENTER = 271.8097
MEAN_ANOMALY   = 164.5926

EPHEMERIS_TYPE = 0
CLASSIFICATION_TYPE = U
NORAD_CAT_ID   = 66497
ELEMENT_SET_NO = 999
REV_AT_EPOCH   = 464
BSTAR          = -.30787916E-1
MEAN_MOTION_DOT = -.2110323E-1
MEAN_MOTION_DDOT = 0

CCSDS_OMM_VERS = 2.0
CREATION_DATE  = 
ORIGINATOR     = 

OBJECT_NAME    = STARLINK-35907
OBJECT_ID      = 2025-263P
CENTER_NAME    = EARTH
REF_FRAME      = TEME
TIME_SYSTEM    = UTC
MEAN_ELEMENT_THEORY = SGP/SGP4

EPOCH          = 2025-12-06T14:00:01.999872
MEAN_MOTION    = 15.58011940
ECCENTRICITY   = .00013861
INCLINATION    = 42.9995
RA_OF_ASC_NODE = 161.1660
ARG_OF_PERICENTER = 273.0150
MEAN_ANOMALY   = 165.3089

EPHEMERIS_TYPE = 0
CLASSIFICATION_TYPE = U
NORAD_CAT_ID   = 66498
ELEMENT_SET_NO = 999
REV_AT_EPOCH   = 464
BSTAR          = -.30836935E-1
MEAN_MOTION_DOT = -.211318E-1
MEAN_MOTION_DDOT = 0

